{
  "type": "FeatureCollection",
  "features": [
    {
      "type": "Feature",
      "properties": {
        "norad_id": 30516,
        "name": "FENGYUN 1C DEB",
        "group": "fengyun-1c-debris",
        "lat": 64.27776619371348,
        "lon": -55.650372661103134,
        "alt_km": 752.4003494414565,
        "timestamp": "2025-12-26T22:28:06.061222+00:00",
        "meta_object_name": "FENGYUN 1C DEB",
        "meta_object_id": "1999-025AJE",
        "meta_epoch": "2025-12-26T05:34:51.532032",
        "meta_mean_motion": 14.41520126,
        "meta_eccentricity": 0.00104422,
        "meta_inclination": 98.8562,
        "meta_ra_of_asc_node": 104.7371,
        "meta_arg_of_pericenter": 251.2266,
        "meta_mean_anomaly": 173.614,
        "meta_ephemeris_type": 0,
        "meta_classification_type": "U",
        "meta_norad_cat_id": 30516,
        "meta_element_set_no": 999,
        "meta_rev_at_epoch": 97909,
        "meta_bstar": 0.0022969671,
        "meta_mean_motion_dot": 7.426e-05,
        "meta_mean_motion_ddot": 0,
        "tle_line1": "1 30516U 99025AJE 25360.23254088  .00007426  00000+0  22970-2 0  9998",
        "tle_line2": "2 30516  98.8562 104.7371 0010442 251.2266 173.6140 14.41520126979095"
      },
      "geometry": {
        "type": "Point",
        "coordinates": [
          -55.650372661103134,
          64.27776619371348
        ]
      }
    },
    {
      "type": "Feature",
      "properties": {
        "norad_id": 30520,
        "name": "FENGYUN 1C DEB",
        "group": "fengyun-1c-debris",
        "lat": -2.4439646050841852,
        "lon": 176.1728013718455,
        "alt_km": 497.6918555368884,
        "timestamp": "2025-12-26T22:28:06.061232+00:00",
        "meta_object_name": "FENGYUN 1C DEB",
        "meta_object_id": "1999-025AJJ",
        "meta_epoch": "2025-12-26T11:22:49.177056",
        "meta_mean_motion": 15.14587725,
        "meta_eccentricity": 0.00698889,
        "meta_inclination": 98.7191,
        "meta_ra_of_asc_node": 175.2685,
        "meta_arg_of_pericenter": 54.2615,
        "meta_mean_anomaly": 306.5087,
        "meta_ephemeris_type": 0,
        "meta_classification_type": "U",
        "meta_norad_cat_id": 30520,
        "meta_element_set_no": 999,
        "meta_rev_at_epoch": 1249,
        "meta_bstar": 0.0009382899,
        "meta_mean_motion_dot": 0.00018356,
        "meta_mean_motion_ddot": 0,
        "tle_line1": "1 30520U 99025AJJ 25360.47418029  .00018356  00000+0  93829-3 0  9992",
        "tle_line2": "2 30520  98.7191 175.2685 0069888  54.2615 306.5087 15.14587725 12493"
      },
      "geometry": {
        "type": "Point",
        "coordinates": [
          176.1728013718455,
          -2.4439646050841852
        ]
      }
    },
    {
      "type": "Feature",
      "properties": {
        "norad_id": 30521,
        "name": "FENGYUN 1C DEB",
        "group": "fengyun-1c-debris",
        "lat": -3.754675815252135,
        "lon": -43.2722189266727,
        "alt_km": 609.6689691093716,
        "timestamp": "2025-12-26T22:28:06.061243+00:00",
        "meta_object_name": "FENGYUN 1C DEB",
        "meta_object_id": "1999-025AJK",
        "meta_epoch": "2025-12-26T08:27:03.595680",
        "meta_mean_motion": 14.58367309,
        "meta_eccentricity": 0.01358851,
        "meta_inclination": 98.989,
        "meta_ra_of_asc_node": 136.6917,
        "meta_arg_of_pericenter": 202.2119,
        "meta_mean_anomaly": 157.3157,
        "meta_ephemeris_type": 0,
        "meta_classification_type": "U",
        "meta_norad_cat_id": 30521,
        "meta_element_set_no": 999,
        "meta_rev_at_epoch": 99780,
        "meta_bstar": 0.00096607441,
        "meta_mean_motion_dot": 5.025e-05,
        "meta_mean_motion_ddot": 0,
        "tle_line1": "1 30521U 99025AJK 25360.35212495  .00005025  00000+0  96607-3 0  9995",
        "tle_line2": "2 30521  98.9890 136.6917 0135885 202.2119 157.3157 14.58367309997804"
      },
      "geometry": {
        "type": "Point",
        "coordinates": [
          -43.2722189266727,
          -3.754675815252135
        ]
      }
    },
    {
      "type": "Feature",
      "properties": {
        "norad_id": 30523,
        "name": "FENGYUN 1C DEB",
        "group": "fengyun-1c-debris",
        "lat": -19.69124871994626,
        "lon": -18.092424751800646,
        "alt_km": 789.5099111168402,
        "timestamp": "2025-12-26T22:28:06.061253+00:00",
        "meta_object_name": "FENGYUN 1C DEB",
        "meta_object_id": "1999-025AJM",
        "meta_epoch": "2025-12-26T09:48:04.973760",
        "meta_mean_motion": 14.27949719,
        "meta_eccentricity": 0.02441066,
        "meta_inclination": 98.4673,
        "meta_ra_of_asc_node": 338.3394,
        "meta_arg_of_pericenter": 68.5007,
        "meta_mean_anomaly": 82.8693,
        "meta_ephemeris_type": 0,
        "meta_classification_type": "U",
        "meta_norad_cat_id": 30523,
        "meta_element_set_no": 999,
        "meta_rev_at_epoch": 98295,
        "meta_bstar": 0.00025921943,
        "meta_mean_motion_dot": 8.36e-06,
        "meta_mean_motion_ddot": 0,
        "tle_line1": "1 30523U 99025AJM 25360.40839090  .00000836  00000+0  25922-3 0  9996",
        "tle_line2": "2 30523  98.4673 338.3394 0244106  68.5007  82.8693 14.27949719982950"
      },
      "geometry": {
        "type": "Point",
        "coordinates": [
          -18.092424751800646,
          -19.69124871994626
        ]
      }
    },
    {
      "type": "Feature",
      "properties": {
        "norad_id": 30524,
        "name": "FENGYUN 1C DEB",
        "group": "fengyun-1c-debris",
        "lat": -69.99129202108985,
        "lon": -160.1067494987984,
        "alt_km": 886.7102898248977,
        "timestamp": "2025-12-26T22:28:06.061263+00:00",
        "meta_object_name": "FENGYUN 1C DEB",
        "meta_object_id": "1999-025AJN",
        "meta_epoch": "2025-12-26T10:44:50.070336",
        "meta_mean_motion": 13.92395723,
        "meta_eccentricity": 0.02072614,
        "meta_inclination": 99.3093,
        "meta_ra_of_asc_node": 172.6304,
        "meta_arg_of_pericenter": 213.6218,
        "meta_mean_anomaly": 145.1647,
        "meta_ephemeris_type": 0,
        "meta_classification_type": "U",
        "meta_norad_cat_id": 30524,
        "meta_element_set_no": 999,
        "meta_rev_at_epoch": 94076,
        "meta_bstar": 0.0048228003,
        "meta_mean_motion_dot": 7.354e-05,
        "meta_mean_motion_ddot": 0,
        "tle_line1": "1 30524U 99025AJN 25360.44780174  .00007354  00000+0  48228-2 0  9994",
        "tle_line2": "2 30524  99.3093 172.6304 0207261 213.6218 145.1647 13.92395723940761"
      },
      "geometry": {
        "type": "Point",
        "coordinates": [
          -160.1067494987984,
          -69.99129202108985
        ]
      }
    },
    {
      "type": "Feature",
      "properties": {
        "norad_id": 30525,
        "name": "FENGYUN 1C DEB",
        "group": "fengyun-1c-debris",
        "lat": -61.93510716209495,
        "lon": 47.8182906336791,
        "alt_km": 856.9831796141862,
        "timestamp": "2025-12-26T22:28:06.061279+00:00",
        "meta_object_name": "FENGYUN 1C DEB",
        "meta_object_id": "1999-025AJP",
        "meta_epoch": "2025-12-22T14:44:27.573792",
        "meta_mean_motion": 13.58630469,
        "meta_eccentricity": 0.0292823,
        "meta_inclination": 98.6026,
        "meta_ra_of_asc_node": 240.5159,
        "meta_arg_of_pericenter": 283.8011,
        "meta_mean_anomaly": 73.0709,
        "meta_ephemeris_type": 0,
        "meta_classification_type": "U",
        "meta_norad_cat_id": 30525,
        "meta_element_set_no": 999,
        "meta_rev_at_epoch": 93251,
        "meta_bstar": 0.0012949,
        "meta_mean_motion_dot": 1.212e-05,
        "meta_mean_motion_ddot": 0,
        "tle_line1": "1 30525U 99025AJP 25356.61420803  .00001212  00000+0  12949-2 0  9997",
        "tle_line2": "2 30525  98.6026 240.5159 0292823 283.8011  73.0709 13.58630469932514"
      },
      "geometry": {
        "type": "Point",
        "coordinates": [
          47.8182906336791,
          -61.93510716209495
        ]
      }
    },
    {
      "type": "Feature",
      "properties": {
        "norad_id": 30526,
        "name": "FENGYUN 1C DEB",
        "group": "fengyun-1c-debris",
        "lat": 33.356377538879016,
        "lon": -91.00808092800139,
        "alt_km": 1036.3983858725378,
        "timestamp": "2025-12-26T22:28:06.061293+00:00",
        "meta_object_name": "FENGYUN 1C DEB",
        "meta_object_id": "1999-025AJQ",
        "meta_epoch": "2025-12-25T11:55:09.728832",
        "meta_mean_motion": 13.49931437,
        "meta_eccentricity": 0.0306664,
        "meta_inclination": 99.5464,
        "meta_ra_of_asc_node": 81.2506,
        "meta_arg_of_pericenter": 232.8304,
        "meta_mean_anomaly": 124.4468,
        "meta_ephemeris_type": 0,
        "meta_classification_type": "U",
        "meta_norad_cat_id": 30526,
        "meta_element_set_no": 999,
        "meta_rev_at_epoch": 92830,
        "meta_bstar": 0.0011903,
        "meta_mean_motion_dot": 9.69e-06,
        "meta_mean_motion_ddot": 0,
        "tle_line1": "1 30526U 99025AJQ 25359.49664038  .00000969  00000+0  11903-2 0  9994",
        "tle_line2": "2 30526  99.5464  81.2506 0306664 232.8304 124.4468 13.49931437928309"
      },
      "geometry": {
        "type": "Point",
        "coordinates": [
          -91.00808092800139,
          33.356377538879016
        ]
      }
    }
  ]
}